STARLINK-36622          
1 67667U 26022V   26051.74105270  .00146747  00000+0  96658-3 0  9999
2 67667  97.2836  84.9227 0001435  79.1442 280.9985 15.75221846  2881
STARLINK-36625          
1 67668U 26022W   26051.73963980  .00240782  00000+0  15648-2 0  9992
2 67668  97.2834  84.9243 0001615  98.7742 261.3706 15.75267389  2884
STARLINK-36639          
1 67669U 26022X   26051.73787980  .00180932  00000+0  11866-2 0  9995
2 67669  97.2838  84.9265 0001744  62.3951 297.7491 15.75223928  2880
STARLINK-36596          
1 67670U 26022Y   26051.73611198  .00134810  00000+0  88899-3 0  9999
2 67670  97.2840  84.9287 0001728 117.3662 242.7779 15.75228704  2887
STARLINK-36297          
1 67671U 26022Z   26051.73398744  .00285097  00000+0  18395-2 0  9996
2 67671  97.2840  84.9316 0001589  92.9386 267.2061 15.75311312  2881
STARLINK-36616          
1 67672U 26022AA  26051.73540831  .00199053  00000+0  13016-2 0  9994
2 67672  97.2840  84.9295 0001647  81.3788 278.7663 15.75241636  2887
COSMOS 2600             
1 67674U 26023A   26051.71086149  .00065242  00000+0  30516-3 0  9999
2 67674  96.6469 127.8844 0001400  46.7276 313.4112 15.83081642  2367
2026-023B               
1 67675U 26023B   26051.76628288  .00009211  00000+0  39767-3 0  9992
2 67675  96.6386 126.6760 0018146 190.4457 169.6407 15.22542584  2282
2026-023C               
1 67676U 26023C   26051.76567028  .00010867  00000+0  46727-3 0  9990
2 67676  96.6420 126.6919 0019341 180.4307 179.6918 15.22620569  2445
2026-023D               
1 67677U 26023D   26051.76686601  .00009090  00000+0  39298-3 0  9991
2 67677  96.6452 126.6770 0019481 185.5118 174.5910 15.22473882  2278
2026-023E               
1 67678U 26023E   26051.76593830  .00011025  00000+0  47432-3 0  9993
2 67678  96.6345 126.6731 0019298 184.9574 175.1477 15.22598145  2277
2026-023F               
1 67679U 26023F   26051.76457476  .00011363  00000+0  48626-3 0  9990
2 67679  96.6352 129.1709 0021239 179.8134 180.3117 15.22735544  2266
