CCSDS_OMM_VERS = 2.0
CREATION_DATE  = 
ORIGINATOR     = 

OBJECT_NAME    = STARLINK-36622
OBJECT_ID      = 2026-022V
CENTER_NAME    = EARTH
REF_FRAME      = TEME
TIME_SYSTEM    = UTC
MEAN_ELEMENT_THEORY = SGP/SGP4

EPOCH          = 2026-02-20T17:47:06.953280
MEAN_MOTION    = 15.75221846
ECCENTRICITY   = .0001435
INCLINATION    = 97.2836
RA_OF_ASC_NODE = 84.9227
ARG_OF_PERICENTER = 79.1442
MEAN_ANOMALY   = 280.9985

EPHEMERIS_TYPE = 0
CLASSIFICATION_TYPE = U
NORAD_CAT_ID   = 67667
ELEMENT_SET_NO = 999
REV_AT_EPOCH   = 288
BSTAR          = .96658E-3
MEAN_MOTION_DOT = .146747E-2
MEAN_MOTION_DDOT = 0

CCSDS_OMM_VERS = 2.0
CREATION_DATE  = 
ORIGINATOR     = 

OBJECT_NAME    = STARLINK-36625
OBJECT_ID      = 2026-022W
CENTER_NAME    = EARTH
REF_FRAME      = TEME
TIME_SYSTEM    = UTC
MEAN_ELEMENT_THEORY = SGP/SGP4

EPOCH          = 2026-02-20T17:45:04.878720
MEAN_MOTION    = 15.75267389
ECCENTRICITY   = .0001615
INCLINATION    = 97.2834
RA_OF_ASC_NODE = 84.9243
ARG_OF_PERICENTER = 98.7742
MEAN_ANOMALY   = 261.3706

EPHEMERIS_TYPE = 0
CLASSIFICATION_TYPE = U
NORAD_CAT_ID   = 67668
ELEMENT_SET_NO = 999
REV_AT_EPOCH   = 288
BSTAR          = .15648E-2
MEAN_MOTION_DOT = .240782E-2
MEAN_MOTION_DDOT = 0

CCSDS_OMM_VERS = 2.0
CREATION_DATE  = 
ORIGINATOR     = 

OBJECT_NAME    = STARLINK-36639
OBJECT_ID      = 2026-022X
CENTER_NAME    = EARTH
REF_FRAME      = TEME
TIME_SYSTEM    = UTC
MEAN_ELEMENT_THEORY = SGP/SGP4

EPOCH          = 2026-02-20T17:42:32.814720
MEAN_MOTION    = 15.75223928
ECCENTRICITY   = .0001744
INCLINATION    = 97.2838
RA_OF_ASC_NODE = 84.9265
ARG_OF_PERICENTER = 62.3951
MEAN_ANOMALY   = 297.7491

EPHEMERIS_TYPE = 0
CLASSIFICATION_TYPE = U
NORAD_CAT_ID   = 67669
ELEMENT_SET_NO = 999
REV_AT_EPOCH   = 288
BSTAR          = .11866E-2
MEAN_MOTION_DOT = .180932E-2
MEAN_MOTION_DDOT = 0

CCSDS_OMM_VERS = 2.0
CREATION_DATE  = 
ORIGINATOR     = 

OBJECT_NAME    = STARLINK-36596
OBJECT_ID      = 2026-022Y
CENTER_NAME    = EARTH
REF_FRAME      = TEME
TIME_SYSTEM    = UTC
MEAN_ELEMENT_THEORY = SGP/SGP4

EPOCH          = 2026-02-20T17:40:00.075072
MEAN_MOTION    = 15.75228704
ECCENTRICITY   = .0001728
INCLINATION    = 97.2840
RA_OF_ASC_NODE = 84.9287
ARG_OF_PERICENTER = 117.3662
MEAN_ANOMALY   = 242.7779

EPHEMERIS_TYPE = 0
CLASSIFICATION_TYPE = U
NORAD_CAT_ID   = 67670
ELEMENT_SET_NO = 999
REV_AT_EPOCH   = 288
BSTAR          = .88899E-3
MEAN_MOTION_DOT = .13481E-2
MEAN_MOTION_DDOT = 0

CCSDS_OMM_VERS = 2.0
CREATION_DATE  = 
ORIGINATOR     = 

OBJECT_NAME    = STARLINK-36297
OBJECT_ID      = 2026-022Z
CENTER_NAME    = EARTH
REF_FRAME      = TEME
TIME_SYSTEM    = UTC
MEAN_ELEMENT_THEORY = SGP/SGP4

EPOCH          = 2026-02-20T17:36:56.514816
MEAN_MOTION    = 15.75311312
ECCENTRICITY   = .0001589
INCLINATION    = 97.2840
RA_OF_ASC_NODE = 84.9316
ARG_OF_PERICENTER = 92.9386
MEAN_ANOMALY   = 267.2061

EPHEMERIS_TYPE = 0
CLASSIFICATION_TYPE = U
NORAD_CAT_ID   = 67671
ELEMENT_SET_NO = 999
REV_AT_EPOCH   = 288
BSTAR          = .18395E-2
MEAN_MOTION_DOT = .285097E-2
MEAN_MOTION_DDOT = 0

CCSDS_OMM_VERS = 2.0
CREATION_DATE  = 
ORIGINATOR     = 

OBJECT_NAME    = STARLINK-36616
OBJECT_ID      = 2026-022AA
CENTER_NAME    = EARTH
REF_FRAME      = TEME
TIME_SYSTEM    = UTC
MEAN_ELEMENT_THEORY = SGP/SGP4

EPOCH          = 2026-02-20T17:38:59.277984
MEAN_MOTION    = 15.75241636
ECCENTRICITY   = .0001647
INCLINATION    = 97.2840
RA_OF_ASC_NODE = 84.9295
ARG_OF_PERICENTER = 81.3788
MEAN_ANOMALY   = 278.7663

EPHEMERIS_TYPE = 0
CLASSIFICATION_TYPE = U
NORAD_CAT_ID   = 67672
ELEMENT_SET_NO = 999
REV_AT_EPOCH   = 288
BSTAR          = .13016E-2
MEAN_MOTION_DOT = .199053E-2
MEAN_MOTION_DDOT = 0

CCSDS_OMM_VERS = 2.0
CREATION_DATE  = 
ORIGINATOR     = 

OBJECT_NAME    = COSMOS 2600
OBJECT_ID      = 2026-023A
CENTER_NAME    = EARTH
REF_FRAME      = TEME
TIME_SYSTEM    = UTC
MEAN_ELEMENT_THEORY = SGP/SGP4

EPOCH          = 2026-02-20T17:03:38.432736
MEAN_MOTION    = 15.83081642
ECCENTRICITY   = .00014
INCLINATION    = 96.6469
RA_OF_ASC_NODE = 127.8844
ARG_OF_PERICENTER = 46.7276
MEAN_ANOMALY   = 313.4112

EPHEMERIS_TYPE = 0
CLASSIFICATION_TYPE = U
NORAD_CAT_ID   = 67674
ELEMENT_SET_NO = 999
REV_AT_EPOCH   = 236
BSTAR          = .30516E-3
MEAN_MOTION_DOT = .65242E-3
MEAN_MOTION_DDOT = 0

CCSDS_OMM_VERS = 2.0
CREATION_DATE  = 
ORIGINATOR     = 

OBJECT_NAME    = 2026-023B
OBJECT_ID      = 2026-023B
CENTER_NAME    = EARTH
REF_FRAME      = TEME
TIME_SYSTEM    = UTC
MEAN_ELEMENT_THEORY = SGP/SGP4

EPOCH          = 2026-02-20T18:23:26.840832
MEAN_MOTION    = 15.22542584
ECCENTRICITY   = .0018146
INCLINATION    = 96.6386
RA_OF_ASC_NODE = 126.6760
ARG_OF_PERICENTER = 190.4457
MEAN_ANOMALY   = 169.6407

EPHEMERIS_TYPE = 0
CLASSIFICATION_TYPE = U
NORAD_CAT_ID   = 67675
ELEMENT_SET_NO = 999
REV_AT_EPOCH   = 228
BSTAR          = .39767E-3
MEAN_MOTION_DOT = .9211E-4
MEAN_MOTION_DDOT = 0

CCSDS_OMM_VERS = 2.0
CREATION_DATE  = 
ORIGINATOR     = 

OBJECT_NAME    = 2026-023C
OBJECT_ID      = 2026-023C
CENTER_NAME    = EARTH
REF_FRAME      = TEME
TIME_SYSTEM    = UTC
MEAN_ELEMENT_THEORY = SGP/SGP4

EPOCH          = 2026-02-20T18:22:33.912192
MEAN_MOTION    = 15.22620569
ECCENTRICITY   = .0019341
INCLINATION    = 96.6420
RA_OF_ASC_NODE = 126.6919
ARG_OF_PERICENTER = 180.4307
MEAN_ANOMALY   = 179.6918

EPHEMERIS_TYPE = 0
CLASSIFICATION_TYPE = U
NORAD_CAT_ID   = 67676
ELEMENT_SET_NO = 999
REV_AT_EPOCH   = 244
BSTAR          = .46727E-3
MEAN_MOTION_DOT = .10867E-3
MEAN_MOTION_DDOT = 0

CCSDS_OMM_VERS = 2.0
CREATION_DATE  = 
ORIGINATOR     = 

OBJECT_NAME    = 2026-023D
OBJECT_ID      = 2026-023D
CENTER_NAME    = EARTH
REF_FRAME      = TEME
TIME_SYSTEM    = UTC
MEAN_ELEMENT_THEORY = SGP/SGP4

EPOCH          = 2026-02-20T18:24:17.223264
MEAN_MOTION    = 15.22473882
ECCENTRICITY   = .0019481
INCLINATION    = 96.6452
RA_OF_ASC_NODE = 126.6770
ARG_OF_PERICENTER = 185.5118
MEAN_ANOMALY   = 174.5910

EPHEMERIS_TYPE = 0
CLASSIFICATION_TYPE = U
NORAD_CAT_ID   = 67677
ELEMENT_SET_NO = 999
REV_AT_EPOCH   = 227
BSTAR          = .39298E-3
MEAN_MOTION_DOT = .909E-4
MEAN_MOTION_DDOT = 0

CCSDS_OMM_VERS = 2.0
CREATION_DATE  = 
ORIGINATOR     = 

OBJECT_NAME    = 2026-023E
OBJECT_ID      = 2026-023E
CENTER_NAME    = EARTH
REF_FRAME      = TEME
TIME_SYSTEM    = UTC
MEAN_ELEMENT_THEORY = SGP/SGP4

EPOCH          = 2026-02-20T18:22:57.069120
MEAN_MOTION    = 15.22598145
ECCENTRICITY   = .0019298
INCLINATION    = 96.6345
RA_OF_ASC_NODE = 126.6731
ARG_OF_PERICENTER = 184.9574
MEAN_ANOMALY   = 175.1477

EPHEMERIS_TYPE = 0
CLASSIFICATION_TYPE = U
NORAD_CAT_ID   = 67678
ELEMENT_SET_NO = 999
REV_AT_EPOCH   = 227
BSTAR          = .47432E-3
MEAN_MOTION_DOT = .11025E-3
MEAN_MOTION_DDOT = 0

CCSDS_OMM_VERS = 2.0
CREATION_DATE  = 
ORIGINATOR     = 

OBJECT_NAME    = 2026-023F
OBJECT_ID      = 2026-023F
CENTER_NAME    = EARTH
REF_FRAME      = TEME
TIME_SYSTEM    = UTC
MEAN_ELEMENT_THEORY = SGP/SGP4

EPOCH          = 2026-02-20T18:20:59.259264
MEAN_MOTION    = 15.22735544
ECCENTRICITY   = .0021239
INCLINATION    = 96.6352
RA_OF_ASC_NODE = 129.1709
ARG_OF_PERICENTER = 179.8134
MEAN_ANOMALY   = 180.3117

EPHEMERIS_TYPE = 0
CLASSIFICATION_TYPE = U
NORAD_CAT_ID   = 67679
ELEMENT_SET_NO = 999
REV_AT_EPOCH   = 226
BSTAR          = .48626E-3
MEAN_MOTION_DOT = .11363E-3
MEAN_MOTION_DDOT = 0

